{
  "type": "FeatureCollection",
  "features": [
    {
      "type": "Feature",
      "properties": {
        "norad_id": 64751,
        "name": "PROGRESS-MS 31",
        "group": "stations",
        "lat": -21.21828635308753,
        "lon": -35.09586228895128,
        "alt_km": 419.3780876111023,
        "timestamp": "2025-12-15T20:48:52.637646+00:00",
        "meta_object_name": "PROGRESS-MS 31",
        "meta_object_id": "2025-146A",
        "meta_epoch": "2025-12-14T20:42:23.988960",
        "meta_mean_motion": 15.4959536,
        "meta_eccentricity": 0.00032074,
        "meta_inclination": 51.6306,
        "meta_ra_of_asc_node": 131.9662,
        "meta_arg_of_pericenter": 249.8734,
        "meta_mean_anomaly": 110.1909,
        "meta_ephemeris_type": 0,
        "meta_classification_type": "U",
        "meta_norad_cat_id": 64751,
        "meta_element_set_no": 999,
        "meta_rev_at_epoch": 675,
        "meta_bstar": 0.00013765617,
        "meta_mean_motion_dot": 7.299e-05,
        "meta_mean_motion_ddot": 0,
        "tle_line1": "1 64751U 25146A   25348.86277765  .00007299  00000+0  13766-3 0  9993",
        "tle_line2": "2 64751  51.6306 131.9662 0003207 249.8734 110.1909 15.49595360  6759"
      },
      "geometry": {
        "type": "Point",
        "coordinates": [
          -35.09586228895128,
          -21.21828635308753
        ]
      }
    },
    {
      "type": "Feature",
      "properties": {
        "norad_id": 64786,
        "name": "TIANZHOU-9",
        "group": "stations",
        "lat": 40.6465067994027,
        "lon": 74.16140067910369,
        "alt_km": 378.0342274448103,
        "timestamp": "2025-12-15T20:48:52.637656+00:00",
        "meta_object_name": "TIANZHOU-9",
        "meta_object_id": "2025-149A",
        "meta_epoch": "2025-12-14T18:20:35.966688",
        "meta_mean_motion": 15.59276671,
        "meta_eccentricity": 0.00079692,
        "meta_inclination": 41.4686,
        "meta_ra_of_asc_node": 4.4163,
        "meta_arg_of_pericenter": 47.9044,
        "meta_mean_anomaly": 312.2471,
        "meta_ephemeris_type": 0,
        "meta_classification_type": "U",
        "meta_norad_cat_id": 64786,
        "meta_element_set_no": 999,
        "meta_rev_at_epoch": 25530,
        "meta_bstar": 0.0002758625,
        "meta_mean_motion_dot": 0.00022075,
        "meta_mean_motion_ddot": 0,
        "tle_line1": "1 64786U 25149A   25348.76430517  .00022075  00000+0  27586-3 0  9993",
        "tle_line2": "2 64786  41.4686   4.4163 0007969  47.9044 312.2471 15.59276671255303"
      },
      "geometry": {
        "type": "Point",
        "coordinates": [
          74.16140067910369,
          40.6465067994027
        ]
      }
    },
    {
      "type": "Feature",
      "properties": {
        "norad_id": 65077,
        "name": "CREW DRAGON 11",
        "group": "stations",
        "lat": -21.218287509252743,
        "lon": -35.09586118252976,
        "alt_km": 419.3780876652427,
        "timestamp": "2025-12-15T20:48:52.637670+00:00",
        "meta_object_name": "CREW DRAGON 11",
        "meta_object_id": "2025-166A",
        "meta_epoch": "2025-12-14T20:42:23.988960",
        "meta_mean_motion": 15.4959536,
        "meta_eccentricity": 0.00032074,
        "meta_inclination": 51.6306,
        "meta_ra_of_asc_node": 131.9662,
        "meta_arg_of_pericenter": 249.8734,
        "meta_mean_anomaly": 110.1909,
        "meta_ephemeris_type": 0,
        "meta_classification_type": "U",
        "meta_norad_cat_id": 65077,
        "meta_element_set_no": 999,
        "meta_rev_at_epoch": 214,
        "meta_bstar": 0.00013765617,
        "meta_mean_motion_dot": 7.299e-05,
        "meta_mean_motion_ddot": 0,
        "tle_line1": "1 65077U 25166A   25348.86277765  .00007299  00000+0  13766-3 0  9997",
        "tle_line2": "2 65077  51.6306 131.9662 0003207 249.8734 110.1909 15.49595360  2140"
      },
      "geometry": {
        "type": "Point",
        "coordinates": [
          -35.09586118252976,
          -21.218287509252743
        ]
      }
    },
    {
      "type": "Feature",
      "properties": {
        "norad_id": 65304,
        "name": "DRAGON CRS-33",
        "group": "stations",
        "lat": -21.218288135508764,
        "lon": -35.09586058321825,
        "alt_km": 419.3780876945657,
        "timestamp": "2025-12-15T20:48:52.637683+00:00",
        "meta_object_name": "DRAGON CRS-33",
        "meta_object_id": "2025-186A",
        "meta_epoch": "2025-12-14T20:42:23.988960",
        "meta_mean_motion": 15.4959536,
        "meta_eccentricity": 0.00032074,
        "meta_inclination": 51.6306,
        "meta_ra_of_asc_node": 131.9662,
        "meta_arg_of_pericenter": 249.8734,
        "meta_mean_anomaly": 110.1909,
        "meta_ephemeris_type": 0,
        "meta_classification_type": "U",
        "meta_norad_cat_id": 65304,
        "meta_element_set_no": 999,
        "meta_rev_at_epoch": 11,
        "meta_bstar": 0.00013765617,
        "meta_mean_motion_dot": 7.299e-05,
        "meta_mean_motion_ddot": 0,
        "tle_line1": "1 65304U 25186A   25348.86277765  .00007299  00000+0  13766-3 0  9992",
        "tle_line2": "2 65304  51.6306 131.9662 0003207 249.8734 110.1909 15.49595360   118"
      },
      "geometry": {
        "type": "Point",
        "coordinates": [
          -35.09586058321825,
          -21.218288135508764
        ]
      }
    },
    {
      "type": "Feature",
      "properties": {
        "norad_id": 65586,
        "name": "PROGRESS-MS 32",
        "group": "stations",
        "lat": -21.218288665417305,
        "lon": -35.09586007610887,
        "alt_km": 419.37808771938035,
        "timestamp": "2025-12-15T20:48:52.637694+00:00",
        "meta_object_name": "PROGRESS-MS 32",
        "meta_object_id": "2025-204A",
        "meta_epoch": "2025-12-14T20:42:23.988960",
        "meta_mean_motion": 15.4959536,
        "meta_eccentricity": 0.00032074,
        "meta_inclination": 51.6306,
        "meta_ra_of_asc_node": 131.9662,
        "meta_arg_of_pericenter": 249.8734,
        "meta_mean_anomaly": 110.1909,
        "meta_ephemeris_type": 0,
        "meta_classification_type": "U",
        "meta_norad_cat_id": 65586,
        "meta_element_set_no": 999,
        "meta_rev_at_epoch": 27,
        "meta_bstar": 0.00013765617,
        "meta_mean_motion_dot": 7.299e-05,
        "meta_mean_motion_ddot": 0,
        "tle_line1": "1 65586U 25204A   25348.86277765  .00007299  00000+0  13766-3 0  9995",
        "tle_line2": "2 65586  51.6306 131.9662 0003207 249.8734 110.1909 15.49595360   277"
      },
      "geometry": {
        "type": "Point",
        "coordinates": [
          -35.09586007610887,
          -21.218288665417305
        ]
      }
    },
    {
      "type": "Feature",
      "properties": {
        "norad_id": 65616,
        "name": "CYGNUS NG-23",
        "group": "stations",
        "lat": -21.218289243499896,
        "lon": -35.095859522898095,
        "alt_km": 419.3780877464487,
        "timestamp": "2025-12-15T20:48:52.637706+00:00",
        "meta_object_name": "CYGNUS NG-23",
        "meta_object_id": "2025-208A",
        "meta_epoch": "2025-12-14T20:42:23.988960",
        "meta_mean_motion": 15.4959536,
        "meta_eccentricity": 0.00032074,
        "meta_inclination": 51.6306,
        "meta_ra_of_asc_node": 131.9662,
        "meta_arg_of_pericenter": 249.8734,
        "meta_mean_anomaly": 110.1909,
        "meta_ephemeris_type": 0,
        "meta_classification_type": "U",
        "meta_norad_cat_id": 65616,
        "meta_element_set_no": 999,
        "meta_rev_at_epoch": 22,
        "meta_bstar": 0.00013765617,
        "meta_mean_motion_dot": 7.299e-05,
        "meta_mean_motion_ddot": 0,
        "tle_line1": "1 65616U 25208A   25348.86277765  .00007299  00000+0  13766-3 0  9993",
        "tle_line2": "2 65616  51.6306 131.9662 0003207 249.8734 110.1909 15.49595360   226"
      },
      "geometry": {
        "type": "Point",
        "coordinates": [
          -35.095859522898095,
          -21.218289243499896
        ]
      }
    },
    {
      "type": "Feature",
      "properties": {
        "norad_id": 65729,
        "name": "DRAGONFLY",
        "group": "stations",
        "lat": 51.21181843021771,
        "lon": -159.8475398020872,
        "alt_km": 347.17703273313145,
        "timestamp": "2025-12-15T20:48:52.637716+00:00",
        "meta_object_name": "DRAGONFLY",
        "meta_object_id": "1998-067XH",
        "meta_epoch": "2025-12-14T18:32:10.159584",
        "meta_mean_motion": 15.72674024,
        "meta_eccentricity": 0.00069619,
        "meta_inclination": 51.6244,
        "meta_ra_of_asc_node": 125.3489,
        "meta_arg_of_pericenter": 292.1448,
        "meta_mean_anomaly": 67.8811,
        "meta_ephemeris_type": 0,
        "meta_classification_type": "U",
        "meta_norad_cat_id": 65729,
        "meta_element_set_no": 999,
        "meta_rev_at_epoch": 1348,
        "meta_bstar": 0.0010954429,
        "meta_mean_motion_dot": 0.00152909,
        "meta_mean_motion_ddot": 0,
        "tle_line1": "1 65729U 98067XH  25348.77233981  .00152909  00000+0  10954-2 0  9997",
        "tle_line2": "2 65729  51.6244 125.3489 0006961 292.1448  67.8811 15.72674024 13482"
      },
      "geometry": {
        "type": "Point",
        "coordinates": [
          -159.8475398020872,
          51.21181843021771
        ]
      }
    }
  ]
}